{
  "type": "FeatureCollection",
  "features": [
    {
      "type": "Feature",
      "properties": {
        "norad_id": 66997,
        "name": "2025-292E",
        "group": "last-30-days",
        "lat": 81.29648696983358,
        "lon": 6.425694431172937,
        "alt_km": 553.7507055248143,
        "timestamp": "2025-12-21T09:37:21.374771+00:00",
        "meta_object_name": "2025-292E",
        "meta_object_id": "2025-292E",
        "meta_epoch": "2025-12-21T04:27:13.411296",
        "meta_mean_motion": 15.04733195,
        "meta_eccentricity": 0.0013701,
        "meta_inclination": 97.6532,
        "meta_ra_of_asc_node": 67.6599,
        "meta_arg_of_pericenter": 245.5413,
        "meta_mean_anomaly": 114.4385,
        "meta_ephemeris_type": 0,
        "meta_classification_type": "U",
        "meta_norad_cat_id": 66997,
        "meta_element_set_no": 999,
        "meta_rev_at_epoch": 165,
        "meta_bstar": 0.00017161,
        "meta_mean_motion_dot": 2.36e-05,
        "meta_mean_motion_ddot": 0,
        "tle_line1": "1 66997U 25292E   25355.18557189  .00002360  00000+0  17161-3 0  9990",
        "tle_line2": "2 66997  97.6532  67.6599 0013701 245.5413 114.4385 15.04733195  1655"
      },
      "geometry": {
        "type": "Point",
        "coordinates": [
          6.425694431172937,
          81.29648696983358
        ]
      }
    },
    {
      "type": "Feature",
      "properties": {
        "norad_id": 66998,
        "name": "2025-292F",
        "group": "last-30-days",
        "lat": 82.01516652870082,
        "lon": -38.61103220455719,
        "alt_km": 553.5290769113572,
        "timestamp": "2025-12-21T09:37:21.374781+00:00",
        "meta_object_name": "2025-292F",
        "meta_object_id": "2025-292F",
        "meta_epoch": "2025-12-21T04:25:32.951424",
        "meta_mean_motion": 15.04903809,
        "meta_eccentricity": 0.0014829,
        "meta_inclination": 97.6552,
        "meta_ra_of_asc_node": 67.664,
        "meta_arg_of_pericenter": 246.4229,
        "meta_mean_anomaly": 113.544,
        "meta_ephemeris_type": 0,
        "meta_classification_type": "U",
        "meta_norad_cat_id": 66998,
        "meta_element_set_no": 999,
        "meta_rev_at_epoch": 166,
        "meta_bstar": 0.00022101,
        "meta_mean_motion_dot": 3.072e-05,
        "meta_mean_motion_ddot": 0,
        "tle_line1": "1 66998U 25292F   25355.18440916  .00003072  00000+0  22101-3 0  9991",
        "tle_line2": "2 66998  97.6552  67.6640 0014829 246.4229 113.5440 15.04903809  1666"
      },
      "geometry": {
        "type": "Point",
        "coordinates": [
          -38.61103220455719,
          82.01516652870082
        ]
      }
    },
    {
      "type": "Feature",
      "properties": {
        "norad_id": 66999,
        "name": "2025-292G",
        "group": "last-30-days",
        "lat": 80.95306047590665,
        "lon": -54.46641024395058,
        "alt_km": 553.0309622088753,
        "timestamp": "2025-12-21T09:37:21.374791+00:00",
        "meta_object_name": "2025-292G",
        "meta_object_id": "2025-292G",
        "meta_epoch": "2025-12-21T04:24:52.932672",
        "meta_mean_motion": 15.0496752,
        "meta_eccentricity": 0.0014344,
        "meta_inclination": 97.656,
        "meta_ra_of_asc_node": 67.6658,
        "meta_arg_of_pericenter": 248.4826,
        "meta_mean_anomaly": 111.4872,
        "meta_ephemeris_type": 0,
        "meta_classification_type": "U",
        "meta_norad_cat_id": 66999,
        "meta_element_set_no": 999,
        "meta_rev_at_epoch": 166,
        "meta_bstar": 0.00022211,
        "meta_mean_motion_dot": 3.093e-05,
        "meta_mean_motion_ddot": 0,
        "tle_line1": "1 66999U 25292G   25355.18394598  .00003093  00000+0  22211-3 0  9991",
        "tle_line2": "2 66999  97.6560  67.6658 0014344 248.4826 111.4872 15.04967520  1668"
      },
      "geometry": {
        "type": "Point",
        "coordinates": [
          -54.46641024395058,
          80.95306047590665
        ]
      }
    },
    {
      "type": "Feature",
      "properties": {
        "norad_id": 67000,
        "name": "2025-292H",
        "group": "last-30-days",
        "lat": 80.79530591844176,
        "lon": -55.99407089602376,
        "alt_km": 552.9123694026566,
        "timestamp": "2025-12-21T09:37:21.374804+00:00",
        "meta_object_name": "2025-292H",
        "meta_object_id": "2025-292H",
        "meta_epoch": "2025-12-21T04:24:48.547008",
        "meta_mean_motion": 15.04986187,
        "meta_eccentricity": 0.0014315,
        "meta_inclination": 97.6573,
        "meta_ra_of_asc_node": 67.6675,
        "meta_arg_of_pericenter": 248.1678,
        "meta_mean_anomaly": 111.8026,
        "meta_ephemeris_type": 0,
        "meta_classification_type": "U",
        "meta_norad_cat_id": 67000,
        "meta_element_set_no": 999,
        "meta_rev_at_epoch": 153,
        "meta_bstar": 0.00028366,
        "meta_mean_motion_dot": 3.97e-05,
        "meta_mean_motion_ddot": 0,
        "tle_line1": "1 67000U 25292H   25355.18389522  .00003970  00000+0  28366-3 0  9997",
        "tle_line2": "2 67000  97.6573  67.6675 0014315 248.1678 111.8026 15.04986187  1536"
      },
      "geometry": {
        "type": "Point",
        "coordinates": [
          -55.99407089602376,
          80.79530591844176
        ]
      }
    },
    {
      "type": "Feature",
      "properties": {
        "norad_id": 67001,
        "name": "2025-292J",
        "group": "last-30-days",
        "lat": 69.76496484360311,
        "lon": 46.46900791700207,
        "alt_km": 556.3515011639656,
        "timestamp": "2025-12-21T09:37:21.374814+00:00",
        "meta_object_name": "2025-292J",
        "meta_object_id": "2025-292J",
        "meta_epoch": "2025-12-20T22:07:55.321248",
        "meta_mean_motion": 15.04382378,
        "meta_eccentricity": 0.0014483,
        "meta_inclination": 97.6555,
        "meta_ra_of_asc_node": 67.3957,
        "meta_arg_of_pericenter": 238.1345,
        "meta_mean_anomaly": 121.8472,
        "meta_ephemeris_type": 0,
        "meta_classification_type": "U",
        "meta_norad_cat_id": 67001,
        "meta_element_set_no": 999,
        "meta_rev_at_epoch": 162,
        "meta_bstar": 0.00024767,
        "meta_mean_motion_dot": 3.402e-05,
        "meta_mean_motion_ddot": 0,
        "tle_line1": "1 67001U 25292J   25354.92216807  .00003402  00000+0  24767-3 0  9995",
        "tle_line2": "2 67001  97.6555  67.3957 0014483 238.1345 121.8472 15.04382378  1621"
      },
      "geometry": {
        "type": "Point",
        "coordinates": [
          46.46900791700207,
          69.76496484360311
        ]
      }
    },
    {
      "type": "Feature",
      "properties": {
        "norad_id": 67002,
        "name": "ZK-1A R/B",
        "group": "last-30-days",
        "lat": -25.050137367593234,
        "lon": 72.5243991952469,
        "alt_km": 258.76291788017716,
        "timestamp": "2025-12-21T09:37:21.374824+00:00",
        "meta_object_name": "ZK-1A R/B",
        "meta_object_id": "2025-292K",
        "meta_epoch": "2025-12-20T22:55:52.404096",
        "meta_mean_motion": 15.57136715,
        "meta_eccentricity": 0.0210787,
        "meta_inclination": 97.7216,
        "meta_ra_of_asc_node": 68.4058,
        "meta_arg_of_pericenter": 335.6954,
        "meta_mean_anomaly": 23.4467,
        "meta_ephemeris_type": 0,
        "meta_classification_type": "U",
        "meta_norad_cat_id": 67002,
        "meta_element_set_no": 999,
        "meta_rev_at_epoch": 167,
        "meta_bstar": 0.00063197,
        "meta_mean_motion_dot": 0.00132782,
        "meta_mean_motion_ddot": 6.8834e-06,
        "tle_line1": "1 67002U 25292K   25354.95546764  .00132782  68834-5  63197-3 0  9996",
        "tle_line2": "2 67002  97.7216  68.4058 0210787 335.6954  23.4467 15.57136715  1671"
      },
      "geometry": {
        "type": "Point",
        "coordinates": [
          72.5243991952469,
          -25.050137367593234
        ]
      }
    },
    {
      "type": "Feature",
      "properties": {
        "norad_id": 67003,
        "name": "STARLINK-35660",
        "group": "last-30-days",
        "lat": -43.21170858171348,
        "lon": -81.3631018112912,
        "alt_km": 308.2832354230213,
        "timestamp": "2025-12-21T09:37:21.374835+00:00",
        "meta_object_name": "STARLINK-35660",
        "meta_object_id": "2025-293A",
        "meta_epoch": "2025-12-21T04:00:01.998720",
        "meta_mean_motion": 15.8992716,
        "meta_eccentricity": 0.0003986,
        "meta_inclination": 69.9937,
        "meta_ra_of_asc_node": 299.3319,
        "meta_arg_of_pericenter": 271.8383,
        "meta_mean_anomaly": 141.2928,
        "meta_ephemeris_type": 0,
        "meta_classification_type": "U",
        "meta_norad_cat_id": 67003,
        "meta_element_set_no": 999,
        "meta_rev_at_epoch": 153,
        "meta_bstar": -0.0040565,
        "meta_mean_motion_dot": -0.01209677,
        "meta_mean_motion_ddot": 0.00042087,
        "tle_line1": "1 67003U 25293A   25355.16668980 -.01209677  42087-3 -40565-2 0  9991",
        "tle_line2": "2 67003  69.9937 299.3319 0003986 271.8383 141.2928 15.89927160  1539"
      },
      "geometry": {
        "type": "Point",
        "coordinates": [
          -81.3631018112912,
          -43.21170858171348
        ]
      }
    }
  ]
}